NORAD_CAT_ID,OBJECT_NAME,OBJECT_TYPE,EPOCH,MEAN_MOTION,ECCENTRICITY,INCLINATION,RA_OF_ASC_NODE,ARG_OF_PERICENTER,MEAN_ANOMALY,BSTAR,MEAN_MOTION_DOT,MEAN_MOTION_DDOT,TLE_LINE0,TLE_LINE1,TLE_LINE2,SEMIMAJOR_AXIS,PERIOD,APOGEE,PERIGEE,DECAYED
56456.0,STARLINK-5995,PAYLOAD,2023-08-29 17:23:02,14.98335777,0.0003295,69.9993,311.621,270.342,89.7361,3.4315e-05,3.16e-06,0.0,0 STARLINK-5995,1 56456U 23064J   23241.72433858  .00000316  00000-0  34315-4 0  9993,2 56456  69.9993 311.6210 0003295 270.3420  89.7361 14.98335777 16997,6950.175,96.107,574.33,569.75,0.0
56456.0,STARLINK-5995,PAYLOAD,2023-08-30 12:36:39,14.98330915,0.0003328,69.9992,309.6012,269.9201,90.1576,3.4448e-05,3.18e-06,0.0,0 STARLINK-5995,1 56456U 23064J   23242.52546126  .00000318  00000-0  34448-4 0  9994,2 56456  69.9992 309.6012 0003328 269.9201  90.1576 14.98330915 17478,6950.19,96.107,574.368,569.742,0.0
56456.0,STARLINK-5995,PAYLOAD,2023-09-01 09:28:31,14.98263724,0.0003386,69.9986,304.8884,271.6887,88.3884,-0.0011409,-0.00013657,0.0,0 STARLINK-5995,1 56456U 23064J   23244.39480569 -.00013657  00000-0 -11409-2 0  9991,2 56456  69.9986 304.8884 0003386 271.6887  88.3884 14.98263724 17754,6950.398,96.111,574.616,569.909,0.0
56456.0,STARLINK-5995,PAYLOAD,2023-09-01 12:40:41,14.98330802,0.0003464,69.9984,304.5506,268.9824,91.0938,4.8333e-05,4.84e-06,0.0,0 STARLINK-5995,1 56456U 23064J   23244.52825704  .00000484  00000-0  48333-4 0  9990,2 56456  69.9984 304.5506 0003464 268.9824  91.0938 14.98330802 17413,6950.19,96.107,574.463,569.648,0.0
56456.0,STARLINK-5995,PAYLOAD,2023-09-01 19:05:13,14.98329949,0.0003429,69.9983,303.8773,269.2156,90.861,8.8623e-05,9.65e-06,0.0,0 STARLINK-5995,1 56456U 23064J   23244.79529627  .00000965  00000-0  88623-4 0  9994,2 56456  69.9983 303.8773 0003429 269.2156  90.8610 14.98329949 17811,6950.193,96.107,574.441,569.675,0.0
56456.0,STARLINK-5995,PAYLOAD,2023-09-02 12:42:42,14.98333854,0.0003516,69.9984,302.0253,270.2839,89.7917,3.9561e-05,3.79e-06,0.0,0 STARLINK-5995,1 56456U 23064J   23245.52965353  .00000379  00000-0  39561-4 0  9992,2 56456  69.9984 302.0253 0003516 270.2839  89.7917 14.98333854 17562,6950.181,96.107,574.49,569.602,0.0
56456.0,STARLINK-5995,PAYLOAD,2023-09-02 20:43:22,14.98334634,0.000352,69.9984,301.1838,270.1408,89.9347,4.8784e-05,4.89e-06,0.0,0 STARLINK-5995,1 56456U 23064J   23245.86345157  .00000489  00000-0  48784-4 0  9992,2 56456  69.9984 301.1838 0003520 270.1408  89.9347 14.98334634 17619,6950.179,96.107,574.49,569.597,0.0
56456.0,STARLINK-5995,PAYLOAD,2023-09-03 01:31:46,14.98328419,0.0003493,69.9984,300.6787,270.3127,89.7632,-1.3265e-05,-2.51e-06,0.0,0 STARLINK-5995,1 56456U 23064J   23246.06373730 -.00000251  00000-0 -13265-4 0  9998,2 56456  69.9984 300.6787 0003493 270.3127  89.7632 14.98328419 18008,6950.198,96.107,574.49,569.635,0.0
56456.0,STARLINK-5995,PAYLOAD,2023-09-03 14:20:50,14.98335403,0.0003473,69.9983,299.332,270.1492,89.9269,5.1113e-05,5.17e-06,0.0,0 STARLINK-5995,1 56456U 23064J   23246.59781038  .00000517  00000-0  51113-4 0  9997,2 56456  69.9983 299.3320 0003473 270.1492  89.9269 14.98335403 17722,6950.176,96.107,574.455,569.627,0.0
56456.0,STARLINK-5995,PAYLOAD,2023-09-03 17:33:06,14.98336837,0.0003473,69.9983,298.9953,270.154,89.9221,6.4767e-05,6.8e-06,0.0,0 STARLINK-5995,1 56456U 23064J   23246.73132857  .00000680  00000-0  64767-4 0  9992,2 56456  69.9983 298.9953 0003473 270.1540  89.9221 14.98336837 18106,6950.172,96.107,574.451,569.623,0.0
56456.0,STARLINK-5995,PAYLOAD,2023-09-04 03:09:56,14.98319399,0.0003441,69.9983,297.9855,269.4627,90.6138,-7.2928e-05,-9.63e-06,0.0,0 STARLINK-5995,1 56456U 23064J   23247.13190373 -.00000963  00000-0 -72928-4 0  9998,2 56456  69.9983 297.9855 0003441 269.4627  90.6138 14.98319399 18164,6950.226,96.108,574.482,569.699,0.0
56456.0,STARLINK-5995,PAYLOAD,2023-09-04 09:34:27,14.98377331,0.0003983,69.9983,297.3124,271.9022,88.1681,-0.00098457,-0.00011836,0.0,0 STARLINK-5995,1 56456U 23064J   23247.39892840 -.00011836  00000-0 -98457-3 0  9999,2 56456  69.9983 297.3124 0003983 271.9022  88.1681 14.98377331 18205,6950.047,96.104,574.68,569.143,0.0
56456.0,STARLINK-5995,PAYLOAD,2023-09-04 12:46:44,14.98322964,0.0003424,69.9985,296.9756,268.377,91.6997,-4.8275e-05,-6.69e-06,0.0,0 STARLINK-5995,1 56456U 23064J   23247.53246255 -.00000669  00000-0 -48275-4 0  9994,2 56456  69.9985 296.9756 0003424 268.3770  91.6997 14.98322964 17865,6950.215,96.107,574.459,569.7,0.0
56456.0,STARLINK-5995,PAYLOAD,2023-09-04 15:59:00,14.98325317,0.0003471,69.9986,296.6386,268.1758,91.9004,-5.9562e-05,-8.04e-06,0.0,0 STARLINK-5995,1 56456U 23064J   23247.66598150 -.00000804  00000-0 -59562-4 0  9994,2 56456  69.9986 296.6386 0003471 268.1758  91.9004 14.98325317 18248,6950.207,96.107,574.485,569.66,0.0
56456.0,STARLINK-5995,PAYLOAD,2023-09-05 12:48:45,14.98329497,0.0003462,69.9983,294.4505,267.9897,92.0865,3.1124e-06,-5.6e-07,0.0,0 STARLINK-5995,1 56456U 23064J   23248.53385850 -.00000056  00000-0  31124-5 0  9995,2 56456  69.9983 294.4505 0003462 267.9897  92.0865 14.98329497 18010,6950.194,96.107,574.466,569.653,0.0
56456.0,STARLINK-5995,PAYLOAD,2023-09-06 03:13:57,14.9832463,0.0003486,69.9984,292.9353,265.9944,94.0817,0.00019233,2.202e-05,0.0,0 STARLINK-5995,1 56456U 23064J   23249.13469646  .00002202  00000-0  19233-3 0  9997,2 56456  69.9984 292.9353 0003486 265.9944  94.0817 14.98324630 18105,6950.209,96.107,574.497,569.652,0.0
56456.0,STARLINK-5995,PAYLOAD,2023-09-06 20:51:26,14.98330426,0.0003493,69.9983,291.0835,267.1828,92.8931,8.0307e-05,8.65e-06,0.0,0 STARLINK-5995,1 56456U 23064J   23249.86905526  .00000865  00000-0  80307-4 0  9993,2 56456  69.9983 291.0835 0003493 267.1828  92.8931 14.98330426 18217,6950.192,96.107,574.484,569.629,0.0
56456.0,STARLINK-5995,PAYLOAD,2023-09-07 00:03:41,14.98349531,0.00036,69.9982,290.7465,266.9355,93.1392,-0.0002361,-2.911e-05,0.0,0 STARLINK-5995,1 56456U 23064J   23250.00256897 -.00002911  00000-0 -23610-3 0  9990,2 56456  69.9982 290.7465 0003600 266.9355  93.1392 14.98349531 18596,6950.132,96.106,574.5,569.495,0.0
56456.0,STARLINK-5995,PAYLOAD,2023-09-07 08:04:23,14.9832424,0.0003527,69.9985,289.9051,267.5216,92.554,-3.2556e-05,-4.81e-06,0.0,0 STARLINK-5995,1 56456U 23064J   23250.33638202 -.00000481  00000-0 -32556-4 0  9990,2 56456  69.9985 289.9051 0003527 267.5216  92.5540 14.98324240 18645,6950.211,96.107,574.527,569.624,0.0
56456.0,STARLINK-5995,PAYLOAD,2023-09-07 09:40:31,14.98325379,0.0003603,69.9983,289.7369,268.5625,91.5121,-3.21e-05,-4.76e-06,0.0,0 STARLINK-5995,1 56456U 23064J   23250.40314134 -.00000476  00000-0 -32100-4 0  9992,2 56456  69.9983 289.7369 0003603 268.5625  91.5121 14.98325379 18292,6950.207,96.107,574.576,569.568,0.0
56456.0,STARLINK-5995,PAYLOAD,2023-09-07 22:29:35,14.98331264,0.0003545,69.9984,288.3903,269.3804,90.6949,-1.9236e-05,-3.23e-06,0.0,0 STARLINK-5995,1 56456U 23064J   23250.93721731 -.00000323  00000-0 -19236-4 0  9991,2 56456  69.9984 288.3903 0003545 269.3804  90.6949 14.98331264 18732,6950.189,96.107,574.518,569.59,0.0
56456.0,STARLINK-5995,PAYLOAD,2023-09-08 09:42:31,14.98358877,0.000351,69.9987,287.212,266.1496,93.9262,-0.00045422,-5.513e-05,0.0,0 STARLINK-5995,1 56456U 23064J   23251.40453005 -.00005513  00000-0 -45422-3 0  9991,2 56456  69.9987 287.2120 0003510 266.1496  93.9262 14.98358877 18809,6950.104,96.105,574.408,569.529,0.0
56456.0,STARLINK-5995,PAYLOAD,2023-09-08 12:54:47,14.98335798,0.0003516,69.9986,286.8753,269.5815,90.4941,-3.5306e-05,-5.14e-06,0.0,0 STARLINK-5995,1 56456U 23064J   23251.53805362 -.00000514  00000-0 -35306-4 0  9999,2 56456  69.9986 286.8753 0003516 269.5815  90.4941 14.98335798 18468,6950.175,96.107,574.484,569.596,0.0
56456.0,STARLINK-5995,PAYLOAD,2023-09-08 22:31:36,14.98324881,0.0003431,69.9988,285.8654,269.6938,90.3828,3.9408e-05,3.77e-06,0.0,0 STARLINK-5995,1 56456U 23064J   23251.93861756  .00000377  00000-0  39408-4 0  9994,2 56456  69.9988 285.8654 0003431 269.6938  90.3828 14.98324881 18882,6950.209,96.107,574.458,569.689,0.0
56456.0,STARLINK-5995,PAYLOAD,2023-09-09 12:56:49,14.98327768,0.0003373,69.999,284.3505,269.2143,90.8629,1.3797e-05,7.2e-07,0.0,0 STARLINK-5995,1 56456U 23064J   23252.53945792  .00000072  00000-0  13797-4 0  9999,2 56456  69.9990 284.3505 0003373 269.2143  90.8629 14.98327768 18615,6950.2,96.107,574.409,569.72,0.0
56456.0,STARLINK-5995,PAYLOAD,2023-09-09 22:33:37,14.98332195,0.0003402,69.9989,283.3405,269.4045,90.6724,2.5258e-05,2.08e-06,0.0,0 STARLINK-5995,1 56456U 23064J   23252.94001486  .00000208  00000-0  25258-4 0  9993,2 56456  69.9989 283.3405 0003402 269.4045  90.6724 14.98332195 19038,6950.186,96.107,574.416,569.687,0.0
56456.0,STARLINK-5995,PAYLOAD,2023-09-10 11:22:41,14.9833303,0.0003404,69.9988,281.9939,269.4728,90.6041,2.5174e-05,2.07e-06,0.0,0 STARLINK-5995,1 56456U 23064J   23253.47409334  .00000207  00000-0  25174-4 0  9992,2 56456  69.9988 281.9939 0003404 269.4728  90.6041 14.98333030 18752,6950.184,96.107,574.414,569.683,0.0
56456.0,STARLINK-5995,PAYLOAD,2023-09-11 01:47:54,14.98326545,0.0003417,69.9986,280.4784,270.4983,89.5784,-7.1165e-06,-1.78e-06,0.0,0 STARLINK-5995,1 56456U 23064J   23254.07493777 -.00000178  00000-0 -71165-5 0  9994,2 56456  69.9986 280.4784 0003417 270.4983  89.5784 14.98326545 19206,6950.204,96.107,574.443,569.694,0.0
56456.0,STARLINK-5995,PAYLOAD,2023-09-11 11:24:43,14.98325223,0.0003242,69.9989,279.4677,266.7237,93.3551,1.7323e-05,1.14e-06,0.0,0 STARLINK-5995,1 56456U 23064J   23254.47549860  .00000114  00000-0  17323-4 0  9996,2 56456  69.9989 279.4677 0003242 266.7237  93.3551 14.98325223 18907,6950.208,96.107,574.326,569.819,0.0
56456.0,STARLINK-5995,PAYLOAD,2023-09-12 01:49:55,14.98331272,0.0003436,69.9985,277.9532,270.2467,89.8298,-1.5634e-05,-2.8e-06,0.0,0 STARLINK-5995,1 56456U 23064J   23255.07633547 -.00000280  00000-0 -15634-4 0  9998,2 56456  69.9985 277.9532 0003436 270.2467  89.8298 14.98331272 19355,6950.189,96.107,574.442,569.666,0.0
